     2              NAVIGATION DATA                         RINEX VERSION / TYPE
CCRINEXN V1.6.0 UX  CDDIS               06-AUG-16 15:33     PGM / RUN BY / DATE 
IGS BROADCAST EPHEMERIS FILE                                COMMENT             
    0.4657D-08  0.1490D-07 -0.5960D-07 -0.5960D-07          ION ALPHA           
    0.7782D+05  0.4915D+05 -0.6554D+05 -0.3277D+06          ION BETA            
    0.279396772385D-08 0.133226762955D-13   589824     1908 DELTA-UTC: A0,A1,T,W
    17                                                      LEAP SECONDS        
                                                            END OF HEADER       
19 16  8  5 18  0  0.0-0.524435192347D-03 0.341060513165D-12 0.000000000000D+00
    0.800000000000D+02 0.306562500000D+02 0.474698344520D-08 0.304524718323D+00
    0.168755650520D-05 0.106826926349D-01 0.332854688168D-05 0.515362052345D+04
    0.496800000000D+06-0.614672899246D-07 0.191037657801D+01 0.104308128357D-06
    0.973975511612D+00 0.323562500000D+03 0.836331110468D+00-0.851392606777D-08
    0.149649090628D-09 0.100000000000D+01 0.190800000000D+04 0.000000000000D+00
    0.200000000000D+01 0.000000000000D+00-0.149011611938D-07 0.800000000000D+02
    0.489600000000D+06 0.400000000000D+01 0.000000000000D+00 0.000000000000D+00
20 16  8  5 18  0  0.0 0.428362749517D-03 0.216004991671D-11 0.000000000000D+00
    0.550000000000D+02-0.203437500000D+02 0.508485475947D-08 0.262905551117D+01
   -0.104121863842D-05 0.461563840509D-02 0.111944973469D-04 0.515378293037D+04
    0.496800000000D+06 0.670552253723D-07-0.245978376327D+01-0.335276126862D-07
    0.926605207478D+00 0.143593750000D+03 0.140851474526D+01-0.816141110249D-08
    0.635740765587D-10 0.100000000000D+01 0.190800000000D+04 0.000000000000D+00
    0.200000000000D+01 0.000000000000D+00-0.838190317154D-08 0.550000000000D+02
    0.489600000000D+06 0.000000000000D+00 0.000000000000D+00 0.000000000000D+00
21 16  8  5 18  0  0.0-0.529875978828D-03-0.795807864051D-12 0.000000000000D+00
    0.700000000000D+01-0.837187500000D+02 0.538343852754D-08-0.314106719097D+00
   -0.433064997196D-05 0.233722662087D-01 0.648386776447D-05 0.515357542419D+04
    0.496800000000D+06-0.255182385445D-06 0.283386724460D+01 0.109896063805D-06
    0.937315886123D+00 0.244031250000D+03-0.177034147321D+01-0.904716256492D-08
   -0.335371112410D-09 0.000000000000D+00 0.190800000000D+04 0.000000000000D+00
    0.200000000000D+01 0.000000000000D+00-0.977888703346D-08 0.700000000000D+01
    0.489600000000D+06 0.400000000000D+01 0.000000000000D+00 0.000000000000D+00
23 16  8  5 18  0  0.0-0.184980686754D-03-0.147792889038D-11 0.000000000000D+00
    0.730000000000D+02 0.359687500000D+02 0.518771608920D-08 0.217124918428D+01
    0.167265534401D-05 0.111373567488D-01 0.520795583725D-05 0.515362977219D+04
    0.496800000000D+06-0.175088644028D-06-0.132896638910D+01-0.106170773506D-06
    0.945179291700D+00 0.273656250000D+03-0.254151457084D+01-0.842892252703D-08
    0.163935399996D-09 0.000000000000D+00 0.190800000000D+04 0.000000000000D+00
    0.200000000000D+01 0.000000000000D+00-0.200234353542D-07 0.730000000000D+02
    0.490350000000D+06 0.400000000000D+01 0.000000000000D+00 0.000000000000D+00
24 16  8  5 18  0  0.0-0.212020240724D-04-0.568434188608D-12 0.000000000000D+00
    0.640000000000D+02-0.445312500000D+02 0.484448750664D-08 0.164327992386D+01
   -0.242143869400D-05 0.451587140560D-02 0.706687569618D-05 0.515373530579D+04
    0.496800000000D+06-0.223517417908D-07-0.303486763316D+00 0.130385160446D-07
    0.948822557514D+00 0.235312500000D+03 0.409732024149D+00-0.828641659108D-08
   -0.443232748137D-09 0.100000000000D+01 0.190800000000D+04 0.000000000000D+00
    0.200000000000D+01 0.000000000000D+00 0.232830643654D-08 0.640000000000D+02
    0.489600000000D+06 0.400000000000D+01 0.000000000000D+00 0.000000000000D+00
25 16  8  5 18  0  0.0-0.221640802920D-03-0.693489710102D-11 0.000000000000D+00
    0.370000000000D+02 0.594687500000D+02 0.397909438732D-08-0.471484795257D+00
    0.325217843056D-05 0.559441279620D-02 0.107269734144D-04 0.515372309494D+04
    0.496800000000D+06 0.409781932831D-07 0.770210175694D+00 0.633299350738D-07
    0.978541752923D+00 0.187187500000D+03 0.795702974440D+00-0.781818254581D-08
    0.217866211183D-09 0.100000000000D+01 0.190800000000D+04 0.000000000000D+00
    0.200000000000D+01 0.000000000000D+00 0.558793544769D-08 0.370000000000D+02
    0.489600000000D+06 0.000000000000D+00 0.000000000000D+00 0.000000000000D+00
26 16  8  5 18  0  0.0-0.441174954176D-03-0.898126018001D-11 0.000000000000D+00
    0.480000000000D+02 0.702187500000D+02 0.433625205087D-08-0.112960687383D+01
    0.346079468727D-05 0.907290726900D-03 0.104699283838D-04 0.515355980873D+04
    0.496800000000D+06 0.223517417908D-07 0.760010048143D+00-0.242143869400D-07
    0.960479540811D+00 0.174531250000D+03 0.628305233378D-01-0.793640201157D-08
    0.190365072327D-09 0.000000000000D+00 0.190800000000D+04 0.000000000000D+00
    0.200000000000D+01 0.000000000000D+00 0.698491930962D-08 0.480000000000D+02
    0.489600000000D+06 0.400000000000D+01 0.000000000000D+00 0.000000000000D+00
27 16  8  5 18  0  0.0 0.123149249703D-03 0.454747350886D-11 0.000000000000D+00
    0.106000000000D+03 0.410312500000D+02 0.470948188311D-08-0.282351974122D+01
    0.208243727684D-05 0.378070631996D-02 0.310130417347D-05 0.515364373398D+04
    0.496800000000D+06-0.372529029846D-07 0.181141913763D+01-0.670552253723D-07
    0.971764726404D+00 0.328125000000D+03 0.342764693251D+00-0.829284543030D-08
    0.260010830495D-09 0.000000000000D+00 0.190800000000D+04 0.000000000000D+00
    0.280000000000D+01 0.000000000000D+00 0.186264514923D-08 0.106000000000D+03
    0.489600000000D+06 0.400000000000D+01 0.000000000000D+00 0.000000000000D+00
28 16  8  5 18  0  0.0 0.542372465134D-03 0.272848410532D-11 0.000000000000D+00
    0.120000000000D+02 0.800312500000D+02 0.361943647834D-08-0.197663130834D+01
    0.433623790741D-05 0.197629829636D-01 0.110398977995D-04 0.515363377571D+04
    0.496800000000D+06 0.312924385071D-06 0.845607471083D+00 0.242143869400D-06
    0.989553759046D+00 0.174406250000D+03-0.161325213027D+01-0.735280627389D-08
    0.325370695853D-09 0.100000000000D+01 0.190800000000D+04 0.000000000000D+00
    0.200000000000D+01 0.000000000000D+00-0.107102096081D-07 0.120000000000D+02
    0.489600000000D+06 0.400000000000D+01 0.000000000000D+00 0.000000000000D+00
29 16  8  5 18  0  0.0 0.654253643006D-03-0.682121026330D-12 0.000000000000D+00
    0.106000000000D+03 0.323125000000D+02 0.463447875893D-08-0.756728241592D+00
    0.176392495632D-05 0.673592207022D-03 0.288151204586D-05 0.515377031898D+04
    0.496800000000D+06-0.502914190292D-07 0.187155279490D+01 0.577419996262D-07
    0.977829421537D+00 0.334031250000D+03 0.681014625278D-01-0.831498920982D-08
    0.288226291496D-09 0.000000000000D+00 0.190800000000D+04 0.000000000000D+00
    0.280000000000D+01 0.000000000000D+00-0.102445483208D-07 0.106000000000D+03
    0.489600000000D+06 0.400000000000D+01 0.000000000000D+00 0.000000000000D+00
30 16  8  5 18  0  0.0 0.143856275827D-03 0.204636307899D-11 0.000000000000D+00
    0.290000000000D+02-0.426250000000D+02 0.470233872843D-08 0.745731145530D+00
   -0.216625630856D-05 0.235203304328D-02 0.815652310848D-05 0.515357361984D+04
    0.496800000000D+06 0.987201929092D-07-0.212009685363D+00 0.838190317154D-07
    0.951594758016D+00 0.217062500000D+03 0.312093834521D+01-0.816891169653D-08
   -0.403231081907D-09 0.100000000000D+01 0.190800000000D+04 0.000000000000D+00
    0.200000000000D+01 0.000000000000D+00 0.372529029846D-08 0.290000000000D+02
    0.489600000000D+06 0.400000000000D+01 0.000000000000D+00 0.000000000000D+00
31 16  8  5 18  0  0.0 0.255084596574D-03-0.204636307899D-11 0.000000000000D+00
    0.690000000000D+02-0.399062500000D+02 0.425089135240D-08 0.495669105945D+00
   -0.199303030968D-05 0.816211279016D-02 0.808946788311D-05 0.515379598808D+04
    0.496800000000D+06 0.109896063805D-06-0.245479473571D+00-0.782310962677D-07
    0.970605277514D+00 0.226343750000D+03-0.392518493239D+00-0.804176354316D-08
   -0.373586989969D-09 0.000000000000D+00 0.190800000000D+04 0.000000000000D+00
    0.200000000000D+01 0.000000000000D+00-0.135041773319D-07 0.690000000000D+02
    0.489600000000D+06 0.400000000000D+01 0.000000000000D+00 0.000000000000D+00
32 16  8  5 18  0  0.0-0.699060037732D-04-0.119371179608D-10 0.000000000000D+00
    0.490000000000D+02 0.361562500000D+02 0.473269713583D-08-0.247422443976D+01
    0.201910734177D-05 0.628907931969D-03 0.501051545143D-05 0.515362641907D+04
    0.496800000000D+06-0.800937414169D-07-0.133181088702D+01 0.130385160446D-07
    0.958833051382D+00 0.283343750000D+03-0.228054987095D+01-0.821034199370D-08
    0.209651589973D-09 0.000000000000D+00 0.190800000000D+04 0.000000000000D+00
    0.200000000000D+01 0.000000000000D+00 0.931322574616D-09 0.490000000000D+02
    0.489600000000D+06 0.400000000000D+01 0.000000000000D+00 0.000000000000D+00
 7 16  8  5 19 59 44.0 0.436961650848D-03-0.272848410532D-11 0.000000000000D+00
    0.700000000000D+01-0.380312500000D+02 0.439196865741D-08 0.171538097369D+01
   -0.192038714886D-05 0.987879326567D-02 0.850856304169D-05 0.515363434410D+04
    0.503984000000D+06-0.158324837685D-06-0.255194427266D+00 0.109896063805D-06
    0.965788267175D+00 0.220125000000D+03-0.265184157061D+01-0.803926343902D-08
   -0.567880797372D-09 0.100000000000D+01 0.190800000000D+04 0.000000000000D+00
    0.200000000000D+01 0.000000000000D+00-0.111758708954D-07 0.700000000000D+01
    0.502320000000D+06 0.400000000000D+01 0.000000000000D+00 0.000000000000D+00
